[{"OBJECT_NAME":"STARLINK-2751","OBJECT_ID":"2021-044AZ","EPOCH":"2026-03-09T07:14:48.501600","MEAN_MOTION":15.30224825,"ECCENTRICITY":0.00015992,"INCLINATION":53.1611,"RA_OF_ASC_NODE":66.7384,"ARG_OF_PERICENTER":90.4191,"MEAN_ANOMALY":269.6993,"EPHEMERIS_TYPE":0,"CLASSIFICATION_TYPE":"U","NORAD_CAT_ID":48685,"ELEMENT_SET_NO":999,"REV_AT_EPOCH":26445,"BSTAR":0.00037077914,"MEAN_MOTION_DOT":0.00010646,"MEAN_MOTION_DDOT":0},{"OBJECT_NAME":"TRANSPORTER-1 OBJECT Z","OBJECT_ID":"2021-006Z","EPOCH":"2026-03-09T22:55:57.522432","MEAN_MOTION":15.30965056,"ECCENTRICITY":0.00100878,"INCLINATION":97.2377,"RA_OF_ASC_NODE":113.4736,"ARG_OF_PERICENTER":179.6869,"MEAN_ANOMALY":180.438,"EPHEMERIS_TYPE":0,"CLASSIFICATION_TYPE":"U","NORAD_CAT_ID":47436,"ELEMENT_SET_NO":999,"REV_AT_EPOCH":28420,"BSTAR":0.00024088983,"MEAN_MOTION_DOT":7.143e-5,"MEAN_MOTION_DDOT":0}]
